CCSDS_OMM_VERS = 2.0
CREATION_DATE  = 
ORIGINATOR     = 

OBJECT_NAME    = STARLINK-35648
OBJECT_ID      = 2025-262AC
CENTER_NAME    = EARTH
REF_FRAME      = TEME
TIME_SYSTEM    = UTC
MEAN_ELEMENT_THEORY = SGP/SGP4

EPOCH          = 2025-11-26T00:00:05.998752
MEAN_MOTION    = 15.85865733
ECCENTRICITY   = .0001587
INCLINATION    = 42.9978
RA_OF_ASC_NODE = 170.5196
ARG_OF_PERICENTER = 281.7321
MEAN_ANOMALY   = 225.8008

EPHEMERIS_TYPE = 0
CLASSIFICATION_TYPE = U
NORAD_CAT_ID   = 66482
ELEMENT_SET_NO = 999
REV_AT_EPOCH   = 279
BSTAR          = -.69675E-2
MEAN_MOTION_DOT = -.1552101E-1
MEAN_MOTION_DDOT = 0

CCSDS_OMM_VERS = 2.0
CREATION_DATE  = 
ORIGINATOR     = 

OBJECT_NAME    = STARLINK-35654
OBJECT_ID      = 2025-262AD
CENTER_NAME    = EARTH
REF_FRAME      = TEME
TIME_SYSTEM    = UTC
MEAN_ELEMENT_THEORY = SGP/SGP4

EPOCH          = 2025-11-26T00:00:05.998752
MEAN_MOTION    = 15.85874957
ECCENTRICITY   = .0001625
INCLINATION    = 42.9976
RA_OF_ASC_NODE = 170.5129
ARG_OF_PERICENTER = 281.0841
MEAN_ANOMALY   = 228.9190

EPHEMERIS_TYPE = 0
CLASSIFICATION_TYPE = U
NORAD_CAT_ID   = 66483
ELEMENT_SET_NO = 999
REV_AT_EPOCH   = 294
BSTAR          = -.71121E-2
MEAN_MOTION_DOT = -.1580978E-1
MEAN_MOTION_DDOT = 0

CCSDS_OMM_VERS = 2.0
CREATION_DATE  = 
ORIGINATOR     = 

OBJECT_NAME    = STARLINK-35371
OBJECT_ID      = 2025-262AE
CENTER_NAME    = EARTH
REF_FRAME      = TEME
TIME_SYSTEM    = UTC
MEAN_ELEMENT_THEORY = SGP/SGP4

EPOCH          = 2025-11-26T00:00:05.998752
MEAN_MOTION    = 15.85884521
ECCENTRICITY   = .0001669
INCLINATION    = 42.9979
RA_OF_ASC_NODE = 170.5065
ARG_OF_PERICENTER = 278.1292
MEAN_ANOMALY   = 234.5219

EPHEMERIS_TYPE = 0
CLASSIFICATION_TYPE = U
NORAD_CAT_ID   = 66484
ELEMENT_SET_NO = 999
REV_AT_EPOCH   = 294
BSTAR          = -.7366E-2
MEAN_MOTION_DOT = -.1630878E-1
MEAN_MOTION_DDOT = 0

CCSDS_OMM_VERS = 2.0
CREATION_DATE  = 
ORIGINATOR     = 

OBJECT_NAME    = STARLINK-34774
OBJECT_ID      = 2025-263A
CENTER_NAME    = EARTH
REF_FRAME      = TEME
TIME_SYSTEM    = UTC
MEAN_ELEMENT_THEORY = SGP/SGP4

EPOCH          = 2025-11-26T04:00:03.000096
MEAN_MOTION    = 15.90156012
ECCENTRICITY   = .0001975
INCLINATION    = 42.9983
RA_OF_ASC_NODE = 224.4849
ARG_OF_PERICENTER = 264.3181
MEAN_ANOMALY   = 26.7065

EPHEMERIS_TYPE = 0
CLASSIFICATION_TYPE = U
NORAD_CAT_ID   = 66485
ELEMENT_SET_NO = 999
REV_AT_EPOCH   = 297
BSTAR          = -.39352E-2
MEAN_MOTION_DOT = -.1092654E-1
MEAN_MOTION_DDOT = 0

CCSDS_OMM_VERS = 2.0
CREATION_DATE  = 
ORIGINATOR     = 

OBJECT_NAME    = STARLINK-34844
OBJECT_ID      = 2025-263B
CENTER_NAME    = EARTH
REF_FRAME      = TEME
TIME_SYSTEM    = UTC
MEAN_ELEMENT_THEORY = SGP/SGP4

EPOCH          = 2025-11-26T04:00:03.000096
MEAN_MOTION    = 15.90144145
ECCENTRICITY   = .0001877
INCLINATION    = 42.9977
RA_OF_ASC_NODE = 224.4725
ARG_OF_PERICENTER = 269.4843
MEAN_ANOMALY   = 26.2431

EPHEMERIS_TYPE = 0
CLASSIFICATION_TYPE = U
NORAD_CAT_ID   = 66486
ELEMENT_SET_NO = 999
REV_AT_EPOCH   = 292
BSTAR          = -.38893E-2
MEAN_MOTION_DOT = -.108069E-1
MEAN_MOTION_DDOT = 0

CCSDS_OMM_VERS = 2.0
CREATION_DATE  = 
ORIGINATOR     = 

OBJECT_NAME    = STARLINK-34733
OBJECT_ID      = 2025-263C
CENTER_NAME    = EARTH
REF_FRAME      = TEME
TIME_SYSTEM    = UTC
MEAN_ELEMENT_THEORY = SGP/SGP4

EPOCH          = 2025-11-25T08:00:03.000384
MEAN_MOTION    = 15.92407753
ECCENTRICITY   = .00018395
INCLINATION    = 42.9984
RA_OF_ASC_NODE = 229.6402
ARG_OF_PERICENTER = 267.5512
MEAN_ANOMALY   = 291.5340

EPHEMERIS_TYPE = 0
CLASSIFICATION_TYPE = U
NORAD_CAT_ID   = 66487
ELEMENT_SET_NO = 999
REV_AT_EPOCH   = 283
BSTAR          = -.38906257E-2
MEAN_MOTION_DOT = -.1364307E-1
MEAN_MOTION_DDOT = .53539376E-3

CCSDS_OMM_VERS = 2.0
CREATION_DATE  = 
ORIGINATOR     = 

OBJECT_NAME    = STARLINK-35515
OBJECT_ID      = 2025-263D
CENTER_NAME    = EARTH
REF_FRAME      = TEME
TIME_SYSTEM    = UTC
MEAN_ELEMENT_THEORY = SGP/SGP4

EPOCH          = 2025-11-26T04:00:03.000096
MEAN_MOTION    = 15.90232755
ECCENTRICITY   = .0001855
INCLINATION    = 42.9981
RA_OF_ASC_NODE = 224.4585
ARG_OF_PERICENTER = 270.3836
MEAN_ANOMALY   = 30.9307

EPHEMERIS_TYPE = 0
CLASSIFICATION_TYPE = U
NORAD_CAT_ID   = 66488
ELEMENT_SET_NO = 999
REV_AT_EPOCH   = 297
BSTAR          = -.40675E-2
MEAN_MOTION_DOT = -.1128878E-1
MEAN_MOTION_DDOT = 0

CCSDS_OMM_VERS = 2.0
CREATION_DATE  = 
ORIGINATOR     = 

OBJECT_NAME    = STARLINK-35696
OBJECT_ID      = 2025-263E
CENTER_NAME    = EARTH
REF_FRAME      = TEME
TIME_SYSTEM    = UTC
MEAN_ELEMENT_THEORY = SGP/SGP4

EPOCH          = 2025-11-26T04:00:03.000096
MEAN_MOTION    = 15.90292059
ECCENTRICITY   = .0001897
INCLINATION    = 42.9979
RA_OF_ASC_NODE = 224.4518
ARG_OF_PERICENTER = 270.4978
MEAN_ANOMALY   = 33.4532

EPHEMERIS_TYPE = 0
CLASSIFICATION_TYPE = U
NORAD_CAT_ID   = 66489
ELEMENT_SET_NO = 999
REV_AT_EPOCH   = 297
BSTAR          = -.42817E-2
MEAN_MOTION_DOT = -.1184046E-1
MEAN_MOTION_DDOT = 0

CCSDS_OMM_VERS = 2.0
CREATION_DATE  = 
ORIGINATOR     = 

OBJECT_NAME    = STARLINK-35693
OBJECT_ID      = 2025-263F
CENTER_NAME    = EARTH
REF_FRAME      = TEME
TIME_SYSTEM    = UTC
MEAN_ELEMENT_THEORY = SGP/SGP4

EPOCH          = 2025-11-26T04:00:03.000096
MEAN_MOTION    = 15.90335526
ECCENTRICITY   = .0001942
INCLINATION    = 42.9981
RA_OF_ASC_NODE = 224.4437
ARG_OF_PERICENTER = 269.8868
MEAN_ANOMALY   = 37.2107

EPHEMERIS_TYPE = 0
CLASSIFICATION_TYPE = U
NORAD_CAT_ID   = 66490
ELEMENT_SET_NO = 999
REV_AT_EPOCH   = 297
BSTAR          = -.44666E-2
MEAN_MOTION_DOT = -.1255511E-1
MEAN_MOTION_DDOT = 0

CCSDS_OMM_VERS = 2.0
CREATION_DATE  = 
ORIGINATOR     = 

OBJECT_NAME    = STARLINK-35663
OBJECT_ID      = 2025-263G
CENTER_NAME    = EARTH
REF_FRAME      = TEME
TIME_SYSTEM    = UTC
MEAN_ELEMENT_THEORY = SGP/SGP4

EPOCH          = 2025-11-26T04:00:03.000096
MEAN_MOTION    = 15.90406514
ECCENTRICITY   = .0002069
INCLINATION    = 42.9980
RA_OF_ASC_NODE = 224.4319
ARG_OF_PERICENTER = 265.3699
MEAN_ANOMALY   = 46.3641

EPHEMERIS_TYPE = 0
CLASSIFICATION_TYPE = U
NORAD_CAT_ID   = 66491
ELEMENT_SET_NO = 999
REV_AT_EPOCH   = 297
BSTAR          = -.46988E-2
MEAN_MOTION_DOT = -.1317489E-1
MEAN_MOTION_DDOT = 0

CCSDS_OMM_VERS = 2.0
CREATION_DATE  = 
ORIGINATOR     = 

OBJECT_NAME    = STARLINK-35673
OBJECT_ID      = 2025-263H
CENTER_NAME    = EARTH
REF_FRAME      = TEME
TIME_SYSTEM    = UTC
MEAN_ELEMENT_THEORY = SGP/SGP4

EPOCH          = 2025-11-26T04:00:03.000096
MEAN_MOTION    = 15.90422710
ECCENTRICITY   = .0001586
INCLINATION    = 42.9980
RA_OF_ASC_NODE = 224.4258
ARG_OF_PERICENTER = 275.3208
MEAN_ANOMALY   = 38.8459

EPHEMERIS_TYPE = 0
CLASSIFICATION_TYPE = U
NORAD_CAT_ID   = 66492
ELEMENT_SET_NO = 999
REV_AT_EPOCH   = 297
BSTAR          = -.46732E-2
MEAN_MOTION_DOT = -.1311749E-1
MEAN_MOTION_DDOT = 0

CCSDS_OMM_VERS = 2.0
CREATION_DATE  = 
ORIGINATOR     = 

OBJECT_NAME    = STARLINK-35597
OBJECT_ID      = 2025-263J
CENTER_NAME    = EARTH
REF_FRAME      = TEME
TIME_SYSTEM    = UTC
MEAN_ELEMENT_THEORY = SGP/SGP4

EPOCH          = 2025-11-26T04:00:03.000096
MEAN_MOTION    = 15.90432707
ECCENTRICITY   = .0002021
INCLINATION    = 42.9981
RA_OF_ASC_NODE = 224.4183
ARG_OF_PERICENTER = 273.5119
MEAN_ANOMALY   = 43.5729

EPHEMERIS_TYPE = 0
CLASSIFICATION_TYPE = U
NORAD_CAT_ID   = 66493
ELEMENT_SET_NO = 999
REV_AT_EPOCH   = 297
BSTAR          = -.47026E-2
MEAN_MOTION_DOT = -.1319965E-1
MEAN_MOTION_DDOT = 0

