STARLINK-35648          
1 66482U 25262AC  25330.00006943 -.01552101  00000+0 -69675-2 0  9999
2 66482  42.9978 170.5196 0001587 281.7321 225.8008 15.85865733  2795
STARLINK-35654          
1 66483U 25262AD  25330.00006943 -.01580978  00000+0 -71121-2 0  9992
2 66483  42.9976 170.5129 0001625 281.0841 228.9190 15.85874957  2944
STARLINK-35371          
1 66484U 25262AE  25330.00006943 -.01630878  00000+0 -73660-2 0  9998
2 66484  42.9979 170.5065 0001669 278.1292 234.5219 15.85884521  2945
STARLINK-34774          
1 66485U 25263A   25330.16670139 -.01092654  00000+0 -39352-2 0  9995
2 66485  42.9983 224.4849 0001975 264.3181  26.7065 15.90156012  2970
STARLINK-34844          
1 66486U 25263B   25330.16670139 -.01080690  00000+0 -38893-2 0  9992
2 66486  42.9977 224.4725 0001877 269.4843  26.2431 15.90144145  2920
STARLINK-34733          
1 66487U 25263C   25329.33336806 -.01364307  53539-3 -38906-2 0  9994
2 66487  42.9984 229.6402 0001839 267.5512 291.5340 15.92407753  2833
STARLINK-35515          
1 66488U 25263D   25330.16670139 -.01128878  00000+0 -40675-2 0  9996
2 66488  42.9981 224.4585 0001855 270.3836  30.9307 15.90232755  2974
STARLINK-35696          
1 66489U 25263E   25330.16670139 -.01184046  00000+0 -42817-2 0  9996
2 66489  42.9979 224.4518 0001897 270.4978  33.4532 15.90292059  2973
STARLINK-35693          
1 66490U 25263F   25330.16670139 -.01255511  00000+0 -44666-2 0  9998
2 66490  42.9981 224.4437 0001942 269.8868  37.2107 15.90335526  2976
STARLINK-35663          
1 66491U 25263G   25330.16670139 -.01317489  00000+0 -46988-2 0  9991
2 66491  42.9980 224.4319 0002069 265.3699  46.3641 15.90406514  2979
STARLINK-35673          
1 66492U 25263H   25330.16670139 -.01311749  00000+0 -46732-2 0  9992
2 66492  42.9980 224.4258 0001586 275.3208  38.8459 15.90422710  2971
STARLINK-35597          
1 66493U 25263J   25330.16670139 -.01319965  00000+0 -47026-2 0  9998
2 66493  42.9981 224.4183 0002021 273.5119  43.5729 15.90432707  2976
